[{"OBJECT_NAME":"STARLINK-11267 [DTC]","OBJECT_ID":"2024-158E","EPOCH":"2025-11-23T15:16:03.828288","MEAN_MOTION":15.69671205,"ECCENTRICITY":0.0001114,"INCLINATION":53.1583,"RA_OF_ASC_NODE":84.3773,"ARG_OF_PERICENTER":101.3162,"MEAN_ANOMALY":258.7981,"EPHEMERIS_TYPE":0,"CLASSIFICATION_TYPE":"U","NORAD_CAT_ID":60994,"ELEMENT_SET_NO":999,"REV_AT_EPOCH":7093,"BSTAR":7.8806e-5,"MEAN_MOTION_DOT":8.954e-5,"MEAN_MOTION_DDOT":0},{"OBJECT_NAME":"STARLINK-11269 [DTC]","OBJECT_ID":"2024-158F","EPOCH":"2025-11-23T15:08:59.834112","MEAN_MOTION":15.69710841,"ECCENTRICITY":0.0001536,"INCLINATION":53.1591,"RA_OF_ASC_NODE":84.3389,"ARG_OF_PERICENTER":49.7816,"MEAN_ANOMALY":310.3336,"EPHEMERIS_TYPE":0,"CLASSIFICATION_TYPE":"U","NORAD_CAT_ID":60995,"ELEMENT_SET_NO":999,"REV_AT_EPOCH":7092,"BSTAR":4.6323e-6,"MEAN_MOTION_DOT":-2.8e-7,"MEAN_MOTION_DDOT":0},{"OBJECT_NAME":"STARLINK-11281 [DTC]","OBJECT_ID":"2024-158G","EPOCH":"2025-11-23T13:30:14.565312","MEAN_MOTION":15.697171,"ECCENTRICITY":0.0001479,"INCLINATION":53.1591,"RA_OF_ASC_NODE":84.6214,"ARG_OF_PERICENTER":92.5639,"MEAN_ANOMALY":267.5548,"EPHEMERIS_TYPE":0,"CLASSIFICATION_TYPE":"U","NORAD_CAT_ID":60996,"ELEMENT_SET_NO":999,"REV_AT_EPOCH":7091,"BSTAR":-5.9174e-6,"MEAN_MOTION_DOT":-1.306e-5,"MEAN_MOTION_DDOT":0},{"OBJECT_NAME":"STARLINK-11260 [DTC]","OBJECT_ID":"2024-158H","EPOCH":"2025-11-23T14:57:31.950144","MEAN_MOTION":15.69725092,"ECCENTRICITY":0.0001257,"INCLINATION":53.1588,"RA_OF_ASC_NODE":61.9762,"ARG_OF_PERICENTER":116.6099,"MEAN_ANOMALY":243.5048,"EPHEMERIS_TYPE":0,"CLASSIFICATION_TYPE":"U","NORAD_CAT_ID":60997,"ELEMENT_SET_NO":999,"REV_AT_EPOCH":7129,"BSTAR":1.8494e-5,"MEAN_MOTION_DOT":1.653e-5,"MEAN_MOTION_DDOT":0},{"OBJECT_NAME":"STARLINK-11287 [DTC]","OBJECT_ID":"2024-158J","EPOCH":"2025-11-23T16:26:32.817120","MEAN_MOTION":15.69713021,"ECCENTRICITY":0.0001426,"INCLINATION":53.1599,"RA_OF_ASC_NODE":83.9598,"ARG_OF_PERICENTER":82.8059,"MEAN_ANOMALY":277.3121,"EPHEMERIS_TYPE":0,"CLASSIFICATION_TYPE":"U","NORAD_CAT_ID":60998,"ELEMENT_SET_NO":999,"REV_AT_EPOCH":7093,"BSTAR":3.1744e-6,"MEAN_MOTION_DOT":-2.05e-6,"MEAN_MOTION_DDOT":0},{"OBJECT_NAME":"STARLINK-11270 [DTC]","OBJECT_ID":"2024-158K","EPOCH":"2025-11-23T20:54:31.940064","MEAN_MOTION":15.69825492,"ECCENTRICITY":8.54e-5,"INCLINATION":53.1565,"RA_OF_ASC_NODE":82.9838,"ARG_OF_PERICENTER":104.6264,"MEAN_ANOMALY":255.4848,"EPHEMERIS_TYPE":0,"CLASSIFICATION_TYPE":"U","NORAD_CAT_ID":60999,"ELEMENT_SET_NO":999,"REV_AT_EPOCH":7096,"BSTAR":0.0020583,"MEAN_MOTION_DOT":0.00257919,"MEAN_MOTION_DDOT":0},{"OBJECT_NAME":"STARLINK-11290 [DTC]","OBJECT_ID":"2024-158L","EPOCH":"2025-11-23T14:40:43.898880","MEAN_MOTION":15.69716983,"ECCENTRICITY":0.0001311,"INCLINATION":53.1589,"RA_OF_ASC_NODE":84.2059,"ARG_OF_PERICENTER":109.9306,"MEAN_ANOMALY":250.1853,"EPHEMERIS_TYPE":0,"CLASSIFICATION_TYPE":"U","NORAD_CAT_ID":61000,"ELEMENT_SET_NO":999,"REV_AT_EPOCH":7099,"BSTAR":2.2569e-6,"MEAN_MOTION_DOT":-3.15e-6,"MEAN_MOTION_DDOT":0},{"OBJECT_NAME":"STARLINK-11274 [DTC]","OBJECT_ID":"2024-158M","EPOCH":"2025-11-23T15:58:19.201728","MEAN_MOTION":15.69693776,"ECCENTRICITY":0.0001331,"INCLINATION":53.1592,"RA_OF_ASC_NODE":83.8322,"ARG_OF_PERICENTER":61.8723,"MEAN_ANOMALY":298.243,"EPHEMERIS_TYPE":0,"CLASSIFICATION_TYPE":"U","NORAD_CAT_ID":61001,"ELEMENT_SET_NO":999,"REV_AT_EPOCH":7093,"BSTAR":-2.8544e-5,"MEAN_MOTION_DOT":-4.043e-5,"MEAN_MOTION_DDOT":0},{"OBJECT_NAME":"STARLINK-11288 [DTC]","OBJECT_ID":"2024-158N","EPOCH":"2025-11-23T15:51:13.821696","MEAN_MOTION":15.69710409,"ECCENTRICITY":0.0001558,"INCLINATION":53.1594,"RA_OF_ASC_NODE":83.8019,"ARG_OF_PERICENTER":54.2541,"MEAN_ANOMALY":305.8622,"EPHEMERIS_TYPE":0,"CLASSIFICATION_TYPE":"U","NORAD_CAT_ID":61002,"ELEMENT_SET_NO":999,"REV_AT_EPOCH":7093,"BSTAR":9.2278e-6,"MEAN_MOTION_DOT":5.29e-6,"MEAN_MOTION_DDOT":0},{"OBJECT_NAME":"STARLINK-32279","OBJECT_ID":"2024-158P","EPOCH":"2025-11-23T21:35:45.183264","MEAN_MOTION":15.30178644,"ECCENTRICITY":0.0001375,"INCLINATION":53.1601,"RA_OF_ASC_NODE":196.9685,"ARG_OF_PERICENTER":80.8194,"MEAN_ANOMALY":279.2962,"EPHEMERIS_TYPE":0,"CLASSIFICATION_TYPE":"U","NORAD_CAT_ID":61003,"ELEMENT_SET_NO":999,"REV_AT_EPOCH":6945,"BSTAR":7.397e-5,"MEAN_MOTION_DOT":1.831e-5,"MEAN_MOTION_DDOT":0},{"OBJECT_NAME":"STARLINK-32336","OBJECT_ID":"2024-158Q","EPOCH":"2025-11-23T23:03:43.310016","MEAN_MOTION":15.30188629,"ECCENTRICITY":0.0001796,"INCLINATION":53.1607,"RA_OF_ASC_NODE":196.6425,"ARG_OF_PERICENTER":71.9853,"MEAN_ANOMALY":288.1344,"EPHEMERIS_TYPE":0,"CLASSIFICATION_TYPE":"U","NORAD_CAT_ID":61004,"ELEMENT_SET_NO":999,"REV_AT_EPOCH":6946,"BSTAR":0.00012525,"MEAN_MOTION_DOT":3.351e-5,"MEAN_MOTION_DDOT":0},{"OBJECT_NAME":"STARLINK-32284","OBJECT_ID":"2024-158R","EPOCH":"2025-11-24T00:48:23.952384","MEAN_MOTION":15.30195733,"ECCENTRICITY":0.0001393,"INCLINATION":53.1593,"RA_OF_ASC_NODE":196.3834,"ARG_OF_PERICENTER":98.2928,"MEAN_ANOMALY":261.8231,"EPHEMERIS_TYPE":0,"CLASSIFICATION_TYPE":"U","NORAD_CAT_ID":61005,"ELEMENT_SET_NO":999,"REV_AT_EPOCH":6940,"BSTAR":0.00014105,"MEAN_MOTION_DOT":3.82e-5,"MEAN_MOTION_DDOT":0},{"OBJECT_NAME":"STARLINK-32282","OBJECT_ID":"2024-158S","EPOCH":"2025-11-24T00:24:04.302144","MEAN_MOTION":15.30216027,"ECCENTRICITY":0.0001721,"INCLINATION":53.1609,"RA_OF_ASC_NODE":196.2745,"ARG_OF_PERICENTER":77.4473,"MEAN_ANOMALY":282.672,"EPHEMERIS_TYPE":0,"CLASSIFICATION_TYPE":"U","NORAD_CAT_ID":61006,"ELEMENT_SET_NO":999,"REV_AT_EPOCH":6947,"BSTAR":1.2893e-5,"MEAN_MOTION_DOT":2.3e-7,"MEAN_MOTION_DDOT":0},{"OBJECT_NAME":"STARLINK-32360","OBJECT_ID":"2024-158T","EPOCH":"2025-11-24T00:36:06.458400","MEAN_MOTION":15.30202694,"ECCENTRICITY":0.0001205,"INCLINATION":53.1577,"RA_OF_ASC_NODE":181.0305,"ARG_OF_PERICENTER":98.6708,"MEAN_ANOMALY":261.4429,"EPHEMERIS_TYPE":0,"CLASSIFICATION_TYPE":"U","NORAD_CAT_ID":61007,"ELEMENT_SET_NO":999,"REV_AT_EPOCH":6961,"BSTAR":9.4306e-5,"MEAN_MOTION_DOT":2.435e-5,"MEAN_MOTION_DDOT":0},{"OBJECT_NAME":"STARLINK-32340","OBJECT_ID":"2024-158U","EPOCH":"2025-11-23T21:55:28.295616","MEAN_MOTION":15.30200498,"ECCENTRICITY":0.0001158,"INCLINATION":53.1584,"RA_OF_ASC_NODE":196.9778,"ARG_OF_PERICENTER":75.6999,"MEAN_ANOMALY":284.413,"EPHEMERIS_TYPE":0,"CLASSIFICATION_TYPE":"U","NORAD_CAT_ID":61008,"ELEMENT_SET_NO":999,"REV_AT_EPOCH":6938,"BSTAR":0.00024123,"MEAN_MOTION_DOT":6.792e-5,"MEAN_MOTION_DDOT":0},{"OBJECT_NAME":"STARLINK-32347","OBJECT_ID":"2024-158W","EPOCH":"2025-11-24T00:28:38.838144","MEAN_MOTION":15.30193168,"ECCENTRICITY":0.0001304,"INCLINATION":53.1592,"RA_OF_ASC_NODE":196.2926,"ARG_OF_PERICENTER":107.4345,"MEAN_ANOMALY":252.6798,"EPHEMERIS_TYPE":0,"CLASSIFICATION_TYPE":"U","NORAD_CAT_ID":61010,"ELEMENT_SET_NO":999,"REV_AT_EPOCH":6940,"BSTAR":-1.5205e-5,"MEAN_MOTION_DOT":-8.09e-6,"MEAN_MOTION_DDOT":0}]
