STARLINK-11267 [DTC]    
1 60994U 24158E   25327.63615542  .00008954  00000+0  78806-4 0  9997
2 60994  53.1583  84.3773 0001114 101.3162 258.7981 15.69671205 70939
STARLINK-11269 [DTC]    
1 60995U 24158F   25327.63124808 -.00000028  00000+0  46323-5 0  9993
2 60995  53.1591  84.3389 0001536  49.7816 310.3336 15.69710841 70929
STARLINK-11281 [DTC]    
1 60996U 24158G   25327.56266858 -.00001306  00000+0 -59174-5 0  9997
2 60996  53.1591  84.6214 0001479  92.5639 267.5548 15.69717100 70917
STARLINK-11260 [DTC]    
1 60997U 24158H   25327.62328646  .00001653  00000+0  18494-4 0  9991
2 60997  53.1588  61.9762 0001257 116.6099 243.5048 15.69725092 71292
STARLINK-11287 [DTC]    
1 60998U 24158J   25327.68510205 -.00000205  00000+0  31744-5 0  9999
2 60998  53.1599  83.9598 0001426  82.8059 277.3121 15.69713021 70930
STARLINK-11270 [DTC]    
1 60999U 24158K   25327.87120301  .00257919  00000+0  20583-2 0  9996
2 60999  53.1565  82.9838 0000854 104.6264 255.4848 15.69825492 70967
STARLINK-11290 [DTC]    
1 61000U 24158L   25327.61161920 -.00000315  00000+0  22569-5 0  9990
2 61000  53.1589  84.2059 0001311 109.9306 250.1853 15.69716983 70996
STARLINK-11274 [DTC]    
1 61001U 24158M   25327.66550002 -.00004043  00000+0 -28544-4 0  9990
2 61001  53.1592  83.8322 0001331  61.8723 298.2430 15.69693776 70932
STARLINK-11288 [DTC]    
1 61002U 24158N   25327.66057664  .00000529  00000+0  92278-5 0  9996
2 61002  53.1594  83.8019 0001558  54.2541 305.8622 15.69710409 70934
STARLINK-32279          
1 61003U 24158P   25327.89982851  .00001831  00000+0  73970-4 0  9991
2 61003  53.1601 196.9685 0001375  80.8194 279.2962 15.30178644 69458
STARLINK-32336          
1 61004U 24158Q   25327.96091794  .00003351  00000+0  12525-3 0  9994
2 61004  53.1607 196.6425 0001796  71.9853 288.1344 15.30188629 69462
STARLINK-32284          
1 61005U 24158R   25328.03361056  .00003820  00000+0  14105-3 0  9992
2 61005  53.1593 196.3834 0001393  98.2928 261.8231 15.30195733 69407
STARLINK-32282          
1 61006U 24158S   25328.01671646  .00000023  00000+0  12893-4 0  9995
2 61006  53.1609 196.2745 0001721  77.4473 282.6720 15.30216027 69476
STARLINK-32360          
1 61007U 24158T   25328.02507475  .00002435  00000+0  94306-4 0  9993
2 61007  53.1577 181.0305 0001205  98.6708 261.4429 15.30202694 69610
STARLINK-32340          
1 61008U 24158U   25327.91352194  .00006792  00000+0  24123-3 0  9996
2 61008  53.1584 196.9778 0001158  75.6999 284.4130 15.30200498 69380
STARLINK-32347          
1 61010U 24158W   25328.01989396 -.00000809  00000+0 -15205-4 0  9998
2 61010  53.1592 196.2926 0001304 107.4345 252.6798 15.30193168 69407
